[{"OBJECT_NAME":"STARLINK-4205","OBJECT_ID":"2022-083AU","EPOCH":"2026-03-09T13:18:00.505728","MEAN_MOTION":15.08845019,"ECCENTRICITY":0.00015817,"INCLINATION":53.2172,"RA_OF_ASC_NODE":174.6696,"ARG_OF_PERICENTER":62.319,"MEAN_ANOMALY":297.7963,"EPHEMERIS_TYPE":0,"CLASSIFICATION_TYPE":"U","NORAD_CAT_ID":53174,"ELEMENT_SET_NO":999,"REV_AT_EPOCH":20119,"BSTAR":2.38264e-6,"MEAN_MOTION_DOT":-2.5e-6,"MEAN_MOTION_DDOT":0},{"OBJECT_NAME":"FENGYUN 1C DEB","OBJECT_ID":"1999-025BYB","EPOCH":"2026-03-09T05:05:13.521120","MEAN_MOTION":14.56393574,"ECCENTRICITY":0.02857078,"INCLINATION":98.2326,"RA_OF_ASC_NODE":339.505,"ARG_OF_PERICENTER":237.0918,"MEAN_ANOMALY":120.25,"EPHEMERIS_TYPE":0,"CLASSIFICATION_TYPE":"U","NORAD_CAT_ID":31536,"ELEMENT_SET_NO":999,"REV_AT_EPOCH":97515,"BSTAR":0.0011428862,"MEAN_MOTION_DOT":8.819e-5,"MEAN_MOTION_DDOT":0}]
